[{"OBJECT_NAME":"STARLINK-1608","OBJECT_ID":"2020-057AF","EPOCH":"2026-03-09T23:16:52.673376","MEAN_MOTION":15.30180193,"ECCENTRICITY":0.00012584,"INCLINATION":53.16,"RA_OF_ASC_NODE":307.9943,"ARG_OF_PERICENTER":111.525,"MEAN_ANOMALY":248.5885,"EPHEMERIS_TYPE":0,"CLASSIFICATION_TYPE":"U","NORAD_CAT_ID":46146,"ELEMENT_SET_NO":999,"REV_AT_EPOCH":30622,"BSTAR":-4.4972462e-5,"MEAN_MOTION_DOT":-1.69e-5,"MEAN_MOTION_DDOT":0},{"OBJECT_NAME":"GEOSCAN 4 (RS92S4)","OBJECT_ID":"2025-155S","EPOCH":"2026-03-09T21:50:07.724832","MEAN_MOTION":15.30369837,"ECCENTRICITY":0.00070968,"INCLINATION":97.4465,"RA_OF_ASC_NODE":37.7626,"ARG_OF_PERICENTER":154.7045,"MEAN_ANOMALY":205.4544,"EPHEMERIS_TYPE":0,"CLASSIFICATION_TYPE":"U","NORAD_CAT_ID":64892,"ELEMENT_SET_NO":999,"REV_AT_EPOCH":6562,"BSTAR":0.00068609503,"MEAN_MOTION_DOT":0.00020121,"MEAN_MOTION_DDOT":0}]
